FENGYUN 1C DEB          
1 30279U 99025YQ  17345.94862788  .00000276  00000-0  12757-3 0  9998
2 30279  99.2257 132.2250 0240025  52.9907  60.4886 14.14877737562191
